[{"OBJECT_NAME":"COSMOS 2251 DEB","OBJECT_ID":"1993-036UG","EPOCH":"2026-04-26T19:55:36.247296","MEAN_MOTION":14.46038756,"ECCENTRICITY":0.0020544,"INCLINATION":74.0317,"RA_OF_ASC_NODE":357.1597,"ARG_OF_PERICENTER":43.2551,"MEAN_ANOMALY":76.2649,"EPHEMERIS_TYPE":0,"CLASSIFICATION_TYPE":"U","NORAD_CAT_ID":34546,"ELEMENT_SET_NO":999,"REV_AT_EPOCH":89978,"BSTAR":0.00045442,"MEAN_MOTION_DOT":1.598e-5,"MEAN_MOTION_DDOT":0},{"OBJECT_NAME":"COSMOS 2251 DEB","OBJECT_ID":"1993-036UH","EPOCH":"2026-04-26T15:06:53.435232","MEAN_MOTION":14.75364122,"ECCENTRICITY":0.0018824,"INCLINATION":74.0293,"RA_OF_ASC_NODE":197.4405,"ARG_OF_PERICENTER":247.4633,"MEAN_ANOMALY":112.4549,"EPHEMERIS_TYPE":0,"CLASSIFICATION_TYPE":"U","NORAD_CAT_ID":34547,"ELEMENT_SET_NO":999,"REV_AT_EPOCH":90509,"BSTAR":0.0015184,"MEAN_MOTION_DOT":0.00010314,"MEAN_MOTION_DDOT":0},{"OBJECT_NAME":"COSMOS 2251 DEB","OBJECT_ID":"1993-036UP","EPOCH":"2026-04-26T18:35:46.866336","MEAN_MOTION":14.59261885,"ECCENTRICITY":0.0017697,"INCLINATION":74.0242,"RA_OF_ASC_NODE":294.6387,"ARG_OF_PERICENTER":343.3268,"MEAN_ANOMALY":33.9839,"EPHEMERIS_TYPE":0,"CLASSIFICATION_TYPE":"U","NORAD_CAT_ID":34553,"ELEMENT_SET_NO":999,"REV_AT_EPOCH":90065,"BSTAR":0.00093706,"MEAN_MOTION_DOT":4.408e-5,"MEAN_MOTION_DDOT":0},{"OBJECT_NAME":"COSMOS 2251 DEB","OBJECT_ID":"1993-036UQ","EPOCH":"2026-04-26T06:24:33.945984","MEAN_MOTION":14.38203073,"ECCENTRICITY":0.00220368,"INCLINATION":74.0394,"RA_OF_ASC_NODE":51.2261,"ARG_OF_PERICENTER":86.2003,"MEAN_ANOMALY":64.8621,"EPHEMERIS_TYPE":0,"CLASSIFICATION_TYPE":"U","NORAD_CAT_ID":34554,"ELEMENT_SET_NO":999,"REV_AT_EPOCH":89689,"BSTAR":0.00023556421,"MEAN_MOTION_DOT":6.91e-6,"MEAN_MOTION_DDOT":0},{"OBJECT_NAME":"COSMOS 2251 DEB","OBJECT_ID":"1993-036US","EPOCH":"2026-04-26T17:40:53.808960","MEAN_MOTION":14.82385039,"ECCENTRICITY":0.0008273,"INCLINATION":74.0145,"RA_OF_ASC_NODE":218.52,"ARG_OF_PERICENTER":257.5945,"MEAN_ANOMALY":254.3812,"EPHEMERIS_TYPE":0,"CLASSIFICATION_TYPE":"U","NORAD_CAT_ID":34556,"ELEMENT_SET_NO":999,"REV_AT_EPOCH":90326,"BSTAR":0.002152,"MEAN_MOTION_DOT":0.00017255,"MEAN_MOTION_DDOT":0},{"OBJECT_NAME":"COSMOS 2251 DEB","OBJECT_ID":"1993-036UW","EPOCH":"2026-04-26T18:41:53.399328","MEAN_MOTION":14.7563304,"ECCENTRICITY":0.0014209,"INCLINATION":74.0153,"RA_OF_ASC_NODE":238.3193,"ARG_OF_PERICENTER":289.5492,"MEAN_ANOMALY":222.5997,"EPHEMERIS_TYPE":0,"CLASSIFICATION_TYPE":"U","NORAD_CAT_ID":34560,"ELEMENT_SET_NO":999,"REV_AT_EPOCH":90241,"BSTAR":0.0017793,"MEAN_MOTION_DOT":0.00012157,"MEAN_MOTION_DDOT":0},{"OBJECT_NAME":"COSMOS 2251 DEB","OBJECT_ID":"1993-036UZ","EPOCH":"2026-04-26T18:45:22.197024","MEAN_MOTION":14.47016136,"ECCENTRICITY":0.0012799,"INCLINATION":74.0374,"RA_OF_ASC_NODE":311.4728,"ARG_OF_PERICENTER":15.2905,"MEAN_ANOMALY":0.7828,"EPHEMERIS_TYPE":0,"CLASSIFICATION_TYPE":"U","NORAD_CAT_ID":34563,"ELEMENT_SET_NO":999,"REV_AT_EPOCH":90150,"BSTAR":0.00039061,"MEAN_MOTION_DOT":1.396e-5,"MEAN_MOTION_DDOT":0},{"OBJECT_NAME":"COSMOS 2251 DEB","OBJECT_ID":"1993-036VA","EPOCH":"2026-04-26T16:42:50.122944","MEAN_MOTION":14.4093308,"ECCENTRICITY":0.0018169,"INCLINATION":74.034,"RA_OF_ASC_NODE":348.2703,"ARG_OF_PERICENTER":63.3397,"MEAN_ANOMALY":353.5545,"EPHEMERIS_TYPE":0,"CLASSIFICATION_TYPE":"U","NORAD_CAT_ID":34564,"ELEMENT_SET_NO":999,"REV_AT_EPOCH":89950,"BSTAR":0.00020786,"MEAN_MOTION_DOT":6.42e-6,"MEAN_MOTION_DDOT":0},{"OBJECT_NAME":"COSMOS 2251 DEB","OBJECT_ID":"1993-036VD","EPOCH":"2026-04-26T19:23:04.091136","MEAN_MOTION":14.24157931,"ECCENTRICITY":0.0074055,"INCLINATION":74.0405,"RA_OF_ASC_NODE":273.6516,"ARG_OF_PERICENTER":314.6382,"MEAN_ANOMALY":160.1111,"EPHEMERIS_TYPE":0,"CLASSIFICATION_TYPE":"U","NORAD_CAT_ID":34567,"ELEMENT_SET_NO":999,"REV_AT_EPOCH":89047,"BSTAR":0.00015824,"MEAN_MOTION_DOT":3.49e-6,"MEAN_MOTION_DDOT":0},{"OBJECT_NAME":"COSMOS 2251 DEB","OBJECT_ID":"1993-036VF","EPOCH":"2026-04-26T19:32:19.903200","MEAN_MOTION":14.25163283,"ECCENTRICITY":0.0157477,"INCLINATION":73.9902,"RA_OF_ASC_NODE":313.7945,"ARG_OF_PERICENTER":111.7277,"MEAN_ANOMALY":267.9964,"EPHEMERIS_TYPE":0,"CLASSIFICATION_TYPE":"U","NORAD_CAT_ID":34569,"ELEMENT_SET_NO":999,"REV_AT_EPOCH":88892,"BSTAR":0.00062518,"MEAN_MOTION_DOT":1.646e-5,"MEAN_MOTION_DDOT":0},{"OBJECT_NAME":"COSMOS 2251 DEB","OBJECT_ID":"1993-036VG","EPOCH":"2026-04-25T07:55:52.053312","MEAN_MOTION":14.00085109,"ECCENTRICITY":0.01913777,"INCLINATION":73.9594,"RA_OF_ASC_NODE":345.8885,"ARG_OF_PERICENTER":200.1935,"MEAN_ANOMALY":284.4303,"EPHEMERIS_TYPE":0,"CLASSIFICATION_TYPE":"U","NORAD_CAT_ID":34570,"ELEMENT_SET_NO":999,"REV_AT_EPOCH":87470,"BSTAR":0.000423755,"MEAN_MOTION_DOT":7.07e-6,"MEAN_MOTION_DDOT":0},{"OBJECT_NAME":"COSMOS 2251 DEB","OBJECT_ID":"1993-036VH","EPOCH":"2026-04-26T05:10:01.812000","MEAN_MOTION":14.51580736,"ECCENTRICITY":0.00584976,"INCLINATION":74.0382,"RA_OF_ASC_NODE":289.8055,"ARG_OF_PERICENTER":293.213,"MEAN_ANOMALY":66.2877,"EPHEMERIS_TYPE":0,"CLASSIFICATION_TYPE":"U","NORAD_CAT_ID":34571,"ELEMENT_SET_NO":999,"REV_AT_EPOCH":89243,"BSTAR":0.0019483218,"MEAN_MOTION_DOT":7.957e-5,"MEAN_MOTION_DDOT":0},{"OBJECT_NAME":"COSMOS 2251 DEB","OBJECT_ID":"1993-036VJ","EPOCH":"2026-04-26T17:26:56.947200","MEAN_MOTION":14.52434665,"ECCENTRICITY":0.0062352,"INCLINATION":74.0087,"RA_OF_ASC_NODE":221.029,"ARG_OF_PERICENTER":262.8768,"MEAN_ANOMALY":248.2477,"EPHEMERIS_TYPE":0,"CLASSIFICATION_TYPE":"U","NORAD_CAT_ID":34572,"ELEMENT_SET_NO":999,"REV_AT_EPOCH":89336,"BSTAR":0.0020703,"MEAN_MOTION_DOT":8.64e-5,"MEAN_MOTION_DDOT":0},{"OBJECT_NAME":"COSMOS 2251 DEB","OBJECT_ID":"1993-036VL","EPOCH":"2026-04-26T12:14:58.647264","MEAN_MOTION":14.7275497,"ECCENTRICITY":0.00632778,"INCLINATION":74.0661,"RA_OF_ASC_NODE":141.5953,"ARG_OF_PERICENTER":130.0663,"MEAN_ANOMALY":20.4307,"EPHEMERIS_TYPE":0,"CLASSIFICATION_TYPE":"U","NORAD_CAT_ID":34574,"ELEMENT_SET_NO":999,"REV_AT_EPOCH":90761,"BSTAR":0.00086128676,"MEAN_MOTION_DOT":5.65e-5,"MEAN_MOTION_DDOT":0},{"OBJECT_NAME":"COSMOS 2251 DEB","OBJECT_ID":"1993-036VN","EPOCH":"2026-04-26T19:20:19.840416","MEAN_MOTION":14.56389357,"ECCENTRICITY":0.0007921,"INCLINATION":74.0337,"RA_OF_ASC_NODE":242.093,"ARG_OF_PERICENTER":341.1763,"MEAN_ANOMALY":146.6458,"EPHEMERIS_TYPE":0,"CLASSIFICATION_TYPE":"U","NORAD_CAT_ID":34576,"ELEMENT_SET_NO":999,"REV_AT_EPOCH":90432,"BSTAR":0.00074846,"MEAN_MOTION_DOT":3.295e-5,"MEAN_MOTION_DDOT":0},{"OBJECT_NAME":"COSMOS 2251 DEB","OBJECT_ID":"1993-036VR","EPOCH":"2026-04-26T18:20:48.716736","MEAN_MOTION":14.4576602,"ECCENTRICITY":0.0025995,"INCLINATION":74.0533,"RA_OF_ASC_NODE":332.4152,"ARG_OF_PERICENTER":8.5877,"MEAN_ANOMALY":110.6586,"EPHEMERIS_TYPE":0,"CLASSIFICATION_TYPE":"U","NORAD_CAT_ID":34579,"ELEMENT_SET_NO":999,"REV_AT_EPOCH":90125,"BSTAR":0.00033162,"MEAN_MOTION_DOT":1.154e-5,"MEAN_MOTION_DDOT":0}]
