COSMOS 2251 DEB         
1 34546U 93036UG  26116.83028064  .00001598  00000+0  45442-3 0  9994
2 34546  74.0317 357.1597 0020544  43.2551  76.2649 14.46038756899787
COSMOS 2251 DEB         
1 34547U 93036UH  26116.62978513  .00010314  00000+0  15184-2 0  9990
2 34547  74.0293 197.4405 0018824 247.4633 112.4549 14.75364122905096
COSMOS 2251 DEB         
1 34553U 93036UP  26116.77484799  .00004408  00000+0  93706-3 0  9995
2 34553  74.0242 294.6387 0017697 343.3268  33.9839 14.59261885900653
COSMOS 2251 DEB         
1 34554U 93036UQ  26116.26705956  .00000691  00000+0  23556-3 0  9997
2 34554  74.0394  51.2261 0022036  86.2003  64.8621 14.38203073896897
COSMOS 2251 DEB         
1 34556U 93036US  26116.73673390  .00017255  00000+0  21520-2 0  9999
2 34556  74.0145 218.5200 0008273 257.5945 254.3812 14.82385039903269
COSMOS 2251 DEB         
1 34560U 93036UW  26116.77909027  .00012157  00000+0  17793-2 0  9990
2 34560  74.0153 238.3193 0014209 289.5492 222.5997 14.75633040902419
COSMOS 2251 DEB         
1 34563U 93036UZ  26116.78150691  .00001396  00000+0  39061-3 0  9995
2 34563  74.0374 311.4728 0012799  15.2905   0.7828 14.47016136901507
COSMOS 2251 DEB         
1 34564U 93036VA  26116.69641346  .00000642  00000+0  20786-3 0  9995
2 34564  74.0340 348.2703 0018169  63.3397 353.5545 14.40933080899508
COSMOS 2251 DEB         
1 34567U 93036VD  26116.80768624  .00000349  00000+0  15824-3 0  9991
2 34567  74.0405 273.6516 0074055 314.6382 160.1111 14.24157931890471
COSMOS 2251 DEB         
1 34569U 93036VF  26116.81411925  .00001646  00000+0  62518-3 0  9996
2 34569  73.9902 313.7945 0157477 111.7277 267.9964 14.25163283888921
COSMOS 2251 DEB         
1 34570U 93036VG  26115.33046358  .00000707  00000+0  42375-3 0  9994
2 34570  73.9594 345.8885 0191377 200.1935 284.4303 14.00085109874705
COSMOS 2251 DEB         
1 34571U 93036VH  26116.21529875  .00007957  00000+0  19483-2 0  9990
2 34571  74.0382 289.8055 0058497 293.2130  66.2877 14.51580736892438
COSMOS 2251 DEB         
1 34572U 93036VJ  26116.72704800  .00008640  00000+0  20703-2 0  9997
2 34572  74.0087 221.0290 0062352 262.8768 248.2477 14.52434665893365
COSMOS 2251 DEB         
1 34574U 93036VL  26116.51040101  .00005650  00000+0  86129-3 0  9996
2 34574  74.0661 141.5953 0063277 130.0663  20.4307 14.72754970907616
COSMOS 2251 DEB         
1 34576U 93036VN  26116.80578519  .00003295  00000+0  74846-3 0  9995
2 34576  74.0337 242.0930 0007921 341.1763 146.6458 14.56389357904328
COSMOS 2251 DEB         
1 34579U 93036VR  26116.76445274  .00001154  00000+0  33162-3 0  9992
2 34579  74.0533 332.4152 0025995   8.5877 110.6586 14.45766020901256
